ISS (ZARYA)             
1 25544U 98067A   26097.03736053  .00008175  00000+0  15735-3 0  9995
2 25544  51.6332 292.2025 0006343 281.0633  78.9642 15.48812043560725
CSS (TIANHE)            
1 48274U 21035A   26097.24265619  .00030960  00000+0  34619-3 0  9998
2 48274  41.4683  34.2394 0003908 149.0063 211.1007 15.62057309282070
HTV-X1                  
1 66174U 25241A   26097.01720041  .00006605  00000+0  21824-3 0  9993
2 66174  51.6369 296.5029 0007392 282.3651  77.6503 15.32570229 25288
SZ-21 MODULE            
1 66515U 25246C   26097.13123170  .00049067  00000+0  38083-3 0  9994
2 66515  41.4755  27.9821 0003812 239.0017 121.0451 15.70946851 22549
POISK                   
1 36086U 09060A   26097.03736053  .00008175  00000+0  15735-3 0  9993
2 36086  51.6332 292.2025 0006343 281.0633  78.9642 15.48812043560571
ISS (NAUKA)             
1 49044U 21066A   26097.03736053  .00008175  00000+0  15735-3 0  9991
2 49044  51.6332 292.2025 0006343 281.0633  78.9642 15.48812043560614
FREGAT DEB              
1 49271U 11037PF  26097.28411068  .00007090  00000+0  10389-1 0  9996
2 49271  51.6404 214.8833 0953625 124.9641 244.4565 12.40960263216249
CSS (WENTIAN)           
1 53239U 22085A   26097.24265619  .00030960  00000+0  34619-3 0  9991
2 53239  41.4683  34.2394 0003908 149.0063 211.1007 15.62057309282358
CSS (MENGTIAN)          
1 54216U 22143A   26097.24265619  .00030960  00000+0  34619-3 0  9992
2 54216  41.4683  34.2394 0003908 149.0063 211.1007 15.62057309282354
TIANZHOU-9              
1 64786U 25149A   26097.24265619  .00030960  00000+0  34619-3 0  9994
2 64786  41.4683  34.2394 0003908 149.0063 211.1007 15.62057309282357
PROGRESS-MS 32          
1 65586U 25204A   26097.03736053  .00008175  00000+0  15735-3 0  9998
2 65586  51.6332 292.2025 0006343 281.0633  78.9642 15.48812043554504
YOTSUBA-KULOVER         
1 65941U 98067XN  26097.19314331  .00840247  35678-3  13627-2 0  9992
2 65941  51.6139 267.5664 0009303 284.2113  75.7864 16.02745534 28031
BOTAN                   
1 65943U 98067XQ  26096.65046666  .00675338  21640-3  12905-2 0  9996
2 65943  51.6173 270.7288 0008809 277.4180  82.5829 15.99928549 27947
HRC MONOBLOCK CAMERA    
1 66052U 98067XR  26096.69147014  .00067978  00000+0  66599-3 0  9998
2 66052  51.6271 283.8871 0003812 235.8799 124.1835 15.65455485 26771
SHENZHOU-22             
1 66645U 25272A   26097.24265619  .00030960  00000+0  34619-3 0  9997
2 66645  41.4683  34.2394 0003908 149.0063 211.1007 15.62057309282353
SOYUZ-MS 28             
1 66664U 25275A   26097.03736053  .00008175  00000+0  15735-3 0  9994
2 66664  51.6332 292.2025 0006343 281.0633  78.9642 15.48812043560857
