[{"OBJECT_NAME":"ISS (ZARYA)","OBJECT_ID":"1998-067A","EPOCH":"2026-04-07T00:53:47.949792","MEAN_MOTION":15.48812043,"ECCENTRICITY":0.00063437,"INCLINATION":51.6332,"RA_OF_ASC_NODE":292.2025,"ARG_OF_PERICENTER":281.0633,"MEAN_ANOMALY":78.9642,"EPHEMERIS_TYPE":0,"CLASSIFICATION_TYPE":"U","NORAD_CAT_ID":25544,"ELEMENT_SET_NO":999,"REV_AT_EPOCH":56072,"BSTAR":0.00015734889,"MEAN_MOTION_DOT":8.175e-5,"MEAN_MOTION_DDOT":0},{"OBJECT_NAME":"POISK","OBJECT_ID":"2009-060A","EPOCH":"2026-04-07T00:53:47.949792","MEAN_MOTION":15.48812043,"ECCENTRICITY":0.00063437,"INCLINATION":51.6332,"RA_OF_ASC_NODE":292.2025,"ARG_OF_PERICENTER":281.0633,"MEAN_ANOMALY":78.9642,"EPHEMERIS_TYPE":0,"CLASSIFICATION_TYPE":"U","NORAD_CAT_ID":36086,"ELEMENT_SET_NO":999,"REV_AT_EPOCH":56057,"BSTAR":0.00015734889,"MEAN_MOTION_DOT":8.175e-5,"MEAN_MOTION_DDOT":0},{"OBJECT_NAME":"CSS (TIANHE)","OBJECT_ID":"2021-035A","EPOCH":"2026-04-07T05:49:25.494816","MEAN_MOTION":15.62057309,"ECCENTRICITY":0.00039086,"INCLINATION":41.4683,"RA_OF_ASC_NODE":34.2394,"ARG_OF_PERICENTER":149.0063,"MEAN_ANOMALY":211.1007,"EPHEMERIS_TYPE":0,"CLASSIFICATION_TYPE":"U","NORAD_CAT_ID":48274,"ELEMENT_SET_NO":999,"REV_AT_EPOCH":28207,"BSTAR":0.00034619354,"MEAN_MOTION_DOT":0.0003096,"MEAN_MOTION_DDOT":0},{"OBJECT_NAME":"ISS (NAUKA)","OBJECT_ID":"2021-066A","EPOCH":"2026-04-07T00:53:47.949792","MEAN_MOTION":15.48812043,"ECCENTRICITY":0.00063437,"INCLINATION":51.6332,"RA_OF_ASC_NODE":292.2025,"ARG_OF_PERICENTER":281.0633,"MEAN_ANOMALY":78.9642,"EPHEMERIS_TYPE":0,"CLASSIFICATION_TYPE":"U","NORAD_CAT_ID":49044,"ELEMENT_SET_NO":999,"REV_AT_EPOCH":56061,"BSTAR":0.00015734889,"MEAN_MOTION_DOT":8.175e-5,"MEAN_MOTION_DDOT":0},{"OBJECT_NAME":"FREGAT DEB","OBJECT_ID":"2011-037PF","EPOCH":"2026-04-07T06:49:07.162752","MEAN_MOTION":12.40960263,"ECCENTRICITY":0.09536257,"INCLINATION":51.6404,"RA_OF_ASC_NODE":214.8833,"ARG_OF_PERICENTER":124.9641,"MEAN_ANOMALY":244.4565,"EPHEMERIS_TYPE":0,"CLASSIFICATION_TYPE":"U","NORAD_CAT_ID":49271,"ELEMENT_SET_NO":999,"REV_AT_EPOCH":21624,"BSTAR":0.010388597,"MEAN_MOTION_DOT":7.09e-5,"MEAN_MOTION_DDOT":0},{"OBJECT_NAME":"CSS (WENTIAN)","OBJECT_ID":"2022-085A","EPOCH":"2026-04-07T05:49:25.494816","MEAN_MOTION":15.62057309,"ECCENTRICITY":0.00039086,"INCLINATION":41.4683,"RA_OF_ASC_NODE":34.2394,"ARG_OF_PERICENTER":149.0063,"MEAN_ANOMALY":211.1007,"EPHEMERIS_TYPE":0,"CLASSIFICATION_TYPE":"U","NORAD_CAT_ID":53239,"ELEMENT_SET_NO":999,"REV_AT_EPOCH":28235,"BSTAR":0.00034619354,"MEAN_MOTION_DOT":0.0003096,"MEAN_MOTION_DDOT":0},{"OBJECT_NAME":"CSS (MENGTIAN)","OBJECT_ID":"2022-143A","EPOCH":"2026-04-07T05:49:25.494816","MEAN_MOTION":15.62057309,"ECCENTRICITY":0.00039086,"INCLINATION":41.4683,"RA_OF_ASC_NODE":34.2394,"ARG_OF_PERICENTER":149.0063,"MEAN_ANOMALY":211.1007,"EPHEMERIS_TYPE":0,"CLASSIFICATION_TYPE":"U","NORAD_CAT_ID":54216,"ELEMENT_SET_NO":999,"REV_AT_EPOCH":28235,"BSTAR":0.00034619354,"MEAN_MOTION_DOT":0.0003096,"MEAN_MOTION_DDOT":0},{"OBJECT_NAME":"TIANZHOU-9","OBJECT_ID":"2025-149A","EPOCH":"2026-04-07T05:49:25.494816","MEAN_MOTION":15.62057309,"ECCENTRICITY":0.00039086,"INCLINATION":41.4683,"RA_OF_ASC_NODE":34.2394,"ARG_OF_PERICENTER":149.0063,"MEAN_ANOMALY":211.1007,"EPHEMERIS_TYPE":0,"CLASSIFICATION_TYPE":"U","NORAD_CAT_ID":64786,"ELEMENT_SET_NO":999,"REV_AT_EPOCH":28235,"BSTAR":0.00034619354,"MEAN_MOTION_DOT":0.0003096,"MEAN_MOTION_DDOT":0},{"OBJECT_NAME":"PROGRESS-MS 32","OBJECT_ID":"2025-204A","EPOCH":"2026-04-07T00:53:47.949792","MEAN_MOTION":15.48812043,"ECCENTRICITY":0.00063437,"INCLINATION":51.6332,"RA_OF_ASC_NODE":292.2025,"ARG_OF_PERICENTER":281.0633,"MEAN_ANOMALY":78.9642,"EPHEMERIS_TYPE":0,"CLASSIFICATION_TYPE":"U","NORAD_CAT_ID":65586,"ELEMENT_SET_NO":999,"REV_AT_EPOCH":55450,"BSTAR":0.00015734889,"MEAN_MOTION_DOT":8.175e-5,"MEAN_MOTION_DDOT":0},{"OBJECT_NAME":"YOTSUBA-KULOVER","OBJECT_ID":"1998-067XN","EPOCH":"2026-04-07T04:38:07.581984","MEAN_MOTION":16.02745534,"ECCENTRICITY":0.00093039,"INCLINATION":51.6139,"RA_OF_ASC_NODE":267.5664,"ARG_OF_PERICENTER":284.2113,"MEAN_ANOMALY":75.7864,"EPHEMERIS_TYPE":0,"CLASSIFICATION_TYPE":"U","NORAD_CAT_ID":65941,"ELEMENT_SET_NO":999,"REV_AT_EPOCH":2803,"BSTAR":0.0013627362,"MEAN_MOTION_DOT":0.00840247,"MEAN_MOTION_DDOT":0.00035678448},{"OBJECT_NAME":"BOTAN","OBJECT_ID":"1998-067XQ","EPOCH":"2026-04-06T15:36:40.319424","MEAN_MOTION":15.99928549,"ECCENTRICITY":0.00088094,"INCLINATION":51.6173,"RA_OF_ASC_NODE":270.7288,"ARG_OF_PERICENTER":277.418,"MEAN_ANOMALY":82.5829,"EPHEMERIS_TYPE":0,"CLASSIFICATION_TYPE":"U","NORAD_CAT_ID":65943,"ELEMENT_SET_NO":999,"REV_AT_EPOCH":2794,"BSTAR":0.0012904582,"MEAN_MOTION_DOT":0.00675338,"MEAN_MOTION_DDOT":0.00021639573},{"OBJECT_NAME":"HRC MONOBLOCK CAMERA","OBJECT_ID":"1998-067XR","EPOCH":"2026-04-06T16:35:43.020096","MEAN_MOTION":15.65455485,"ECCENTRICITY":0.00038128,"INCLINATION":51.6271,"RA_OF_ASC_NODE":283.8871,"ARG_OF_PERICENTER":235.8799,"MEAN_ANOMALY":124.1835,"EPHEMERIS_TYPE":0,"CLASSIFICATION_TYPE":"U","NORAD_CAT_ID":66052,"ELEMENT_SET_NO":999,"REV_AT_EPOCH":2677,"BSTAR":0.00066599471,"MEAN_MOTION_DOT":0.00067978,"MEAN_MOTION_DDOT":0},{"OBJECT_NAME":"HTV-X1","OBJECT_ID":"2025-241A","EPOCH":"2026-04-07T00:24:46.115424","MEAN_MOTION":15.32570229,"ECCENTRICITY":0.00073928,"INCLINATION":51.6369,"RA_OF_ASC_NODE":296.5029,"ARG_OF_PERICENTER":282.3651,"MEAN_ANOMALY":77.6503,"EPHEMERIS_TYPE":0,"CLASSIFICATION_TYPE":"U","NORAD_CAT_ID":66174,"ELEMENT_SET_NO":999,"REV_AT_EPOCH":2528,"BSTAR":0.00021824449,"MEAN_MOTION_DOT":6.605e-5,"MEAN_MOTION_DDOT":0},{"OBJECT_NAME":"SZ-21 MODULE","OBJECT_ID":"2025-246C","EPOCH":"2026-04-07T03:08:58.418880","MEAN_MOTION":15.70946851,"ECCENTRICITY":0.00038122,"INCLINATION":41.4755,"RA_OF_ASC_NODE":27.9821,"ARG_OF_PERICENTER":239.0017,"MEAN_ANOMALY":121.0451,"EPHEMERIS_TYPE":0,"CLASSIFICATION_TYPE":"U","NORAD_CAT_ID":66515,"ELEMENT_SET_NO":999,"REV_AT_EPOCH":2254,"BSTAR":0.00038082611,"MEAN_MOTION_DOT":0.00049067,"MEAN_MOTION_DDOT":0},{"OBJECT_NAME":"SHENZHOU-22","OBJECT_ID":"2025-272A","EPOCH":"2026-04-07T05:49:25.494816","MEAN_MOTION":15.62057309,"ECCENTRICITY":0.00039086,"INCLINATION":41.4683,"RA_OF_ASC_NODE":34.2394,"ARG_OF_PERICENTER":149.0063,"MEAN_ANOMALY":211.1007,"EPHEMERIS_TYPE":0,"CLASSIFICATION_TYPE":"U","NORAD_CAT_ID":66645,"ELEMENT_SET_NO":999,"REV_AT_EPOCH":28235,"BSTAR":0.00034619354,"MEAN_MOTION_DOT":0.0003096,"MEAN_MOTION_DDOT":0},{"OBJECT_NAME":"SOYUZ-MS 28","OBJECT_ID":"2025-275A","EPOCH":"2026-04-07T00:53:47.949792","MEAN_MOTION":15.48812043,"ECCENTRICITY":0.00063437,"INCLINATION":51.6332,"RA_OF_ASC_NODE":292.2025,"ARG_OF_PERICENTER":281.0633,"MEAN_ANOMALY":78.9642,"EPHEMERIS_TYPE":0,"CLASSIFICATION_TYPE":"U","NORAD_CAT_ID":66664,"ELEMENT_SET_NO":999,"REV_AT_EPOCH":56085,"BSTAR":0.00015734889,"MEAN_MOTION_DOT":8.175e-5,"MEAN_MOTION_DDOT":0}]
